[{"OBJECT_NAME":"FLOCK 4G-21","OBJECT_ID":"2025-009AU","EPOCH":"2026-03-09T04:40:37.351200","MEAN_MOTION":15.28381075,"ECCENTRICITY":4.655e-5,"INCLINATION":97.4032,"RA_OF_ASC_NODE":151.1274,"ARG_OF_PERICENTER":329.5782,"MEAN_ANOMALY":30.5431,"EPHEMERIS_TYPE":0,"CLASSIFICATION_TYPE":"U","NORAD_CAT_ID":62651,"ELEMENT_SET_NO":999,"REV_AT_EPOCH":6367,"BSTAR":0.00049618643,"MEAN_MOTION_DOT":0.00013648,"MEAN_MOTION_DDOT":0},{"OBJECT_NAME":"STARLINK-35793","OBJECT_ID":"2025-303S","EPOCH":"2026-03-09T02:04:09.740640","MEAN_MOTION":15.27621373,"ECCENTRICITY":0.00018151,"INCLINATION":43.0009,"RA_OF_ASC_NODE":314.0538,"ARG_OF_PERICENTER":262.6995,"MEAN_ANOMALY":97.365,"EPHEMERIS_TYPE":0,"CLASSIFICATION_TYPE":"U","NORAD_CAT_ID":67179,"ELEMENT_SET_NO":999,"REV_AT_EPOCH":1264,"BSTAR":0.0012006356,"MEAN_MOTION_DOT":0.00032967,"MEAN_MOTION_DDOT":0}]
